{
  "type": "FeatureCollection",
  "features": [
    {
      "type": "Feature",
      "properties": {
        "norad_id": 38474,
        "name": "IRIDIUM 33 DEB",
        "group": "iridium-33-debris",
        "lat": -67.82980203469727,
        "lon": -0.9409852898121244,
        "alt_km": 746.2324558290902,
        "timestamp": "2025-12-17T07:00:47.293894+00:00",
        "meta_object_name": "IRIDIUM 33 DEB",
        "meta_object_id": "1997-051AAB",
        "meta_epoch": "2025-12-13T08:58:04.646496",
        "meta_mean_motion": 14.5069505,
        "meta_eccentricity": 0.00282612,
        "meta_inclination": 86.3454,
        "meta_ra_of_asc_node": 9.789,
        "meta_arg_of_pericenter": 86.1077,
        "meta_mean_anomaly": 274.3358,
        "meta_ephemeris_type": 0,
        "meta_classification_type": "U",
        "meta_norad_cat_id": 38474,
        "meta_element_set_no": 999,
        "meta_rev_at_epoch": 65327,
        "meta_bstar": 0.00084561127,
        "meta_mean_motion_dot": 3.359e-05,
        "meta_mean_motion_ddot": 0,
        "tle_line1": "1 38474U 97051AAB 25347.37366489  .00003359  00000+0  84561-3 0  9991",
        "tle_line2": "2 38474  86.3454   9.7890 0028261  86.1077 274.3358 14.50695050653279"
      },
      "geometry": {
        "type": "Point",
        "coordinates": [
          -0.9409852898121244,
          -67.82980203469727
        ]
      }
    },
    {
      "type": "Feature",
      "properties": {
        "norad_id": 39777,
        "name": "IRIDIUM 33 DEB",
        "group": "iridium-33-debris",
        "lat": 72.13888504285165,
        "lon": -174.50580638815345,
        "alt_km": 703.6573414489321,
        "timestamp": "2025-12-17T07:00:47.293905+00:00",
        "meta_object_name": "IRIDIUM 33 DEB",
        "meta_object_id": "1997-051AAJ",
        "meta_epoch": "2025-12-16T05:56:45.354624",
        "meta_mean_motion": 14.5651034,
        "meta_eccentricity": 0.00600343,
        "meta_inclination": 85.963,
        "meta_ra_of_asc_node": 173.3415,
        "meta_arg_of_pericenter": 174.7294,
        "meta_mean_anomaly": 185.456,
        "meta_ephemeris_type": 0,
        "meta_classification_type": "U",
        "meta_norad_cat_id": 39777,
        "meta_element_set_no": 999,
        "meta_rev_at_epoch": 60236,
        "meta_bstar": 0.0018808359,
        "meta_mean_motion_dot": 8.597e-05,
        "meta_mean_motion_ddot": 0,
        "tle_line1": "1 39777U 97051AAJ 25350.24774716  .00008597  00000+0  18808-2 0  9993",
        "tle_line2": "2 39777  85.9630 173.3415 0060034 174.7294 185.4560 14.56510340602362"
      },
      "geometry": {
        "type": "Point",
        "coordinates": [
          -174.50580638815345,
          72.13888504285165
        ]
      }
    },
    {
      "type": "Feature",
      "properties": {
        "norad_id": 39778,
        "name": "IRIDIUM 33 DEB",
        "group": "iridium-33-debris",
        "lat": -51.9995439868091,
        "lon": -134.09970351047787,
        "alt_km": 723.6262972524155,
        "timestamp": "2025-12-17T07:00:47.293914+00:00",
        "meta_object_name": "IRIDIUM 33 DEB",
        "meta_object_id": "1997-051AAK",
        "meta_epoch": "2025-12-16T10:07:58.845504",
        "meta_mean_motion": 14.54289538,
        "meta_eccentricity": 0.00075929,
        "meta_inclination": 86.3778,
        "meta_ra_of_asc_node": 41.6274,
        "meta_arg_of_pericenter": 30.956,
        "meta_mean_anomaly": 329.2093,
        "meta_ephemeris_type": 0,
        "meta_classification_type": "U",
        "meta_norad_cat_id": 39778,
        "meta_element_set_no": 999,
        "meta_rev_at_epoch": 60746,
        "meta_bstar": 0.00058000444,
        "meta_mean_motion_dot": 2.48e-05,
        "meta_mean_motion_ddot": 0,
        "tle_line1": "1 39778U 97051AAK 25350.42220886  .00002480  00000+0  58000-3 0  9992",
        "tle_line2": "2 39778  86.3778  41.6274 0007592  30.9560 329.2093 14.54289538607465"
      },
      "geometry": {
        "type": "Point",
        "coordinates": [
          -134.09970351047787,
          -51.9995439868091
        ]
      }
    },
    {
      "type": "Feature",
      "properties": {
        "norad_id": 39781,
        "name": "IRIDIUM 33 DEB",
        "group": "iridium-33-debris",
        "lat": 23.44574389283689,
        "lon": 74.52589838272016,
        "alt_km": 847.3392651972354,
        "timestamp": "2025-12-17T07:00:47.293925+00:00",
        "meta_object_name": "IRIDIUM 33 DEB",
        "meta_object_id": "1997-051AAN",
        "meta_epoch": "2025-12-15T00:15:44.903232",
        "meta_mean_motion": 14.2070789,
        "meta_eccentricity": 0.01756389,
        "meta_inclination": 86.371,
        "meta_ra_of_asc_node": 257.043,
        "meta_arg_of_pericenter": 266.0338,
        "meta_mean_anomaly": 111.7662,
        "meta_ephemeris_type": 0,
        "meta_classification_type": "U",
        "meta_norad_cat_id": 39781,
        "meta_element_set_no": 999,
        "meta_rev_at_epoch": 8139,
        "meta_bstar": 0.0031777078,
        "meta_mean_motion_dot": 8.021e-05,
        "meta_mean_motion_ddot": 0,
        "tle_line1": "1 39781U 97051AAN 25349.01093638  .00008021  00000+0  31777-2 0  9990",
        "tle_line2": "2 39781  86.3710 257.0430 0175638 266.0338 111.7662 14.20707890 81397"
      },
      "geometry": {
        "type": "Point",
        "coordinates": [
          74.52589838272016,
          23.44574389283689
        ]
      }
    },
    {
      "type": "Feature",
      "properties": {
        "norad_id": 40996,
        "name": "IRIDIUM 33 DEB",
        "group": "iridium-33-debris",
        "lat": 53.16090676484791,
        "lon": 174.39871527708144,
        "alt_km": 570.7814783489857,
        "timestamp": "2025-12-17T07:00:47.293936+00:00",
        "meta_object_name": "IRIDIUM 33 DEB",
        "meta_object_id": "1997-051ABJ",
        "meta_epoch": "2025-12-16T11:52:02.455968",
        "meta_mean_motion": 14.96488968,
        "meta_eccentricity": 0.00116474,
        "meta_inclination": 86.3523,
        "meta_ra_of_asc_node": 359.6563,
        "meta_arg_of_pericenter": 53.6369,
        "meta_mean_anomaly": 97.9522,
        "meta_ephemeris_type": 0,
        "meta_classification_type": "U",
        "meta_norad_cat_id": 40996,
        "meta_element_set_no": 999,
        "meta_rev_at_epoch": 62544,
        "meta_bstar": 0.0019797945,
        "meta_mean_motion_dot": 0.00022579,
        "meta_mean_motion_ddot": 0,
        "tle_line1": "1 40996U 97051ABJ 25350.49447287  .00022579  00000+0  19798-2 0  9990",
        "tle_line2": "2 40996  86.3523 359.6563 0011647  53.6369  97.9522 14.96488968625443"
      },
      "geometry": {
        "type": "Point",
        "coordinates": [
          174.39871527708144,
          53.16090676484791
        ]
      }
    },
    {
      "type": "Feature",
      "properties": {
        "norad_id": 40998,
        "name": "IRIDIUM 33 DEB",
        "group": "iridium-33-debris",
        "lat": 77.7685392415317,
        "lon": -145.25336445864022,
        "alt_km": 728.6952803629983,
        "timestamp": "2025-12-17T07:00:47.293946+00:00",
        "meta_object_name": "IRIDIUM 33 DEB",
        "meta_object_id": "1997-051ABL",
        "meta_epoch": "2025-12-14T22:36:58.178592",
        "meta_mean_motion": 14.45106117,
        "meta_eccentricity": 0.00094247,
        "meta_inclination": 86.383,
        "meta_ra_of_asc_node": 52.7149,
        "meta_arg_of_pericenter": 78.6428,
        "meta_mean_anomaly": 45.8037,
        "meta_ephemeris_type": 0,
        "meta_classification_type": "U",
        "meta_norad_cat_id": 40998,
        "meta_element_set_no": 999,
        "meta_rev_at_epoch": 6713,
        "meta_bstar": 0.0004149731,
        "meta_mean_motion_dot": 1.471e-05,
        "meta_mean_motion_ddot": 0,
        "tle_line1": "1 40998U 97051ABL 25348.94234003  .00001471  00000+0  41497-3 0  9999",
        "tle_line2": "2 40998  86.3830  52.7149 0009424  78.6428  45.8037 14.45106117 67136"
      },
      "geometry": {
        "type": "Point",
        "coordinates": [
          -145.25336445864022,
          77.7685392415317
        ]
      }
    },
    {
      "type": "Feature",
      "properties": {
        "norad_id": 46435,
        "name": "IRIDIUM 33 DEB",
        "group": "iridium-33-debris",
        "lat": 59.62109412012759,
        "lon": 5.6255126039091286,
        "alt_km": 892.5639350539959,
        "timestamp": "2025-12-17T07:00:47.293957+00:00",
        "meta_object_name": "IRIDIUM 33 DEB",
        "meta_object_id": "1997-051ABN",
        "meta_epoch": "2025-12-13T20:22:29.882208",
        "meta_mean_motion": 14.32399442,
        "meta_eccentricity": 0.0208315,
        "meta_inclination": 86.2839,
        "meta_ra_of_asc_node": 193.4722,
        "meta_arg_of_pericenter": 272.7642,
        "meta_mean_anomaly": 103.0816,
        "meta_ephemeris_type": 0,
        "meta_classification_type": "U",
        "meta_norad_cat_id": 46435,
        "meta_element_set_no": 999,
        "meta_rev_at_epoch": 7932,
        "meta_bstar": 0.009141333,
        "meta_mean_motion_dot": 0.00031559,
        "meta_mean_motion_ddot": 0,
        "tle_line1": "1 46435U 97051ABN 25347.84895697  .00031559  00000+0  91413-2 0  9993",
        "tle_line2": "2 46435  86.2839 193.4722 0208315 272.7642 103.0816 14.32399442 79328"
      },
      "geometry": {
        "type": "Point",
        "coordinates": [
          5.6255126039091286,
          59.62109412012759
        ]
      }
    }
  ]
}